{"type": "FeatureCollection", "features": [ {"type": "Feature", "properties": {"norad_id": 38552, "name": "METEOSAT-10 (MSG-3)", "group": "weather", "lat": 4.265269284726337, "lon": 152.20934413984773, "alt_km": 35787.049506774325, "timestamp": "2025-12-22T04:03:38.803566+00:00", "meta": {"OBJECT_NAME": "METEOSAT-10 (MSG-3)", "OBJECT_ID": "2012-035B", "EPOCH": "2025-12-21T08:03:51.374592", "MEAN_MOTION": 1.00276748, "ECCENTRICITY": 7.023e-05, "INCLINATION": 4.2476, "RA_OF_ASC_NODE": 61.6997, "ARG_OF_PERICENTER": 268.1719, "MEAN_ANOMALY": 241.5558, "EPHEMERIS_TYPE": 0, "CLASSIFICATION_TYPE": "U", "NORAD_CAT_ID": 38552, "ELEMENT_SET_NO": 999, "REV_AT_EPOCH": 4907, "BSTAR": 0, "MEAN_MOTION_DOT": 1.6e-07, "MEAN_MOTION_DDOT": 0}, "tle": {"line1": "1 38552U 12035B   25355.33601128  .00000016  00000+0  00000+0 0  9993", "line2": "2 38552   4.2476  61.6997 0000702 268.1719 241.5558  1.00276748 49074"}}, "geometry": {"type": "Point", "coordinates": [152.20934413984773, 4.265269284726337]}}, {"type": "Feature", "properties": {"norad_id": 38771, "name": "METOP-B", "group": "weather", "lat": 69.86161650015121, "lon": 21.353492093798963, "alt_km": 812.3711540439663, "timestamp": "2025-12-22T04:03:38.803578+00:00", "meta": {"OBJECT_NAME": "METOP-B", "OBJECT_ID": "2012-049A", "EPOCH": "2025-12-21T19:16:38.436096", "MEAN_MOTION": 14.21411605, "ECCENTRICITY": 0.0003192, "INCLINATION": 98.6785, "RA_OF_ASC_NODE": 45.6078, "ARG_OF_PERICENTER": 124.9401, "MEAN_ANOMALY": 235.2076, "EPHEMERIS_TYPE": 0, "CLASSIFICATION_TYPE": "U", "NORAD_CAT_ID": 38771, "ELEMENT_SET_NO": 999, "REV_AT_EPOCH": 68806, "BSTAR": 7.4969e-05, "MEAN_MOTION_DOT": 1.2e-06, "MEAN_MOTION_DDOT": 0}, "tle": {"line1": "1 38771U 12049A   25355.80322264  .00000120  00000+0  74969-4 0  9990", "line2": "2 38771  98.6785  45.6078 0003192 124.9401 235.2076 14.21411605688065"}}, "geometry": {"type": "Point", "coordinates": [21.353492093798963, 69.86161650015121]}}, {"type": "Feature", "properties": {"norad_id": 39216, "name": "INSAT-3D", "group": "weather", "lat": -0.4430405332713833, "lon": -78.60440273492392, "alt_km": 35779.3521907403, "timestamp": "2025-12-22T04:03:38.803590+00:00", "meta": {"OBJECT_NAME": "INSAT-3D", "OBJECT_ID": "2013-038B", "EPOCH": "2025-12-21T17:14:17.039328", "MEAN_MOTION": 1.00276409, "ECCENTRICITY": 0.0001809, "INCLINATION": 1.4667, "RA_OF_ASC_NODE": 84.896, "ARG_OF_PERICENTER": 152.8717, "MEAN_ANOMALY": 240.8316, "EPHEMERIS_TYPE": 0, "CLASSIFICATION_TYPE": "U", "NORAD_CAT_ID": 39216, "ELEMENT_SET_NO": 999, "REV_AT_EPOCH": 4530, "BSTAR": 0, "MEAN_MOTION_DOT": -3.17e-06, "MEAN_MOTION_DDOT": 0}, "tle": {"line1": "1 39216U 13038B   25355.71825277 -.00000317  00000+0  00000+0 0  9995", "line2": "2 39216   1.4667  84.8960 0001809 152.8717 240.8316  1.00276409 45306"}}, "geometry": {"type": "Point", "coordinates": [-78.60440273492392, -0.4430405332713833]}}, {"type": "Feature", "properties": {"norad_id": 39260, "name": "FENGYUN 3C", "group": "weather", "lat": 54.155316752464664, "lon": 165.30286325690102, "alt_km": 827.0712243247372, "timestamp": "2025-12-22T04:03:38.803604+00:00", "meta": {"OBJECT_NAME": "FENGYUN 3C", "OBJECT_ID": "2013-052A", "EPOCH": "2025-12-21T20:41:15.033120", "MEAN_MOTION": 14.15698842, "ECCENTRICITY": 0.0014785, "INCLINATION": 98.4773, "RA_OF_ASC_NODE": 333.0963, "ARG_OF_PERICENTER": 169.5568, "MEAN_ANOMALY": 190.5917, "EPHEMERIS_TYPE": 0, "CLASSIFICATION_TYPE": "U", "NORAD_CAT_ID": 39260, "ELEMENT_SET_NO": 999, "REV_AT_EPOCH": 63347, "BSTAR": 5.3405e-05, "MEAN_MOTION_DOT": 6.4e-07, "MEAN_MOTION_DDOT": 0}, "tle": {"line1": "1 39260U 13052A   25355.86197955  .00000064  00000+0  53405-4 0  9991", "line2": "2 39260  98.4773 333.0963 0014785 169.5568 190.5917 14.15698842633475"}}, "geometry": {"type": "Point", "coordinates": [165.30286325690102, 54.155316752464664]}}, {"type": "Feature", "properties": {"norad_id": 40069, "name": "METEOR-M 2", "group": "weather", "lat": -59.62379680006491, "lon": -11.84315147007881, "alt_km": 829.6944835450531, "timestamp": "2025-12-22T04:03:38.803615+00:00", "meta": {"OBJECT_NAME": "METEOR-M 2", "OBJECT_ID": "2014-037A", "EPOCH": "2025-12-21T21:35:18.536640", "MEAN_MOTION": 14.21389422, "ECCENTRICITY": 0.0005463, "INCLINATION": 98.4906, "RA_OF_ASC_NODE": 333.1327, "ARG_OF_PERICENTER": 180.7154, "MEAN_ANOMALY": 179.4017, "EPHEMERIS_TYPE": 0, "CLASSIFICATION_TYPE": "U", "NORAD_CAT_ID": 40069, "ELEMENT_SET_NO": 999, "REV_AT_EPOCH": 59413, "BSTAR": -1.7222e-05, "MEAN_MOTION_DOT": -8e-07, "MEAN_MOTION_DDOT": 0}, "tle": {"line1": "1 40069U 14037A   25355.89952010 -.00000080  00000+0 -17222-4 0  9995", "line2": "2 40069  98.4906 333.1327 0005463 180.7154 179.4017 14.21389422594130"}}, "geometry": {"type": "Point", "coordinates": [-11.84315147007881, -59.62379680006491]}}, {"type": "Feature", "properties": {"norad_id": 40267, "name": "HIMAWARI-8", "group": "weather", "lat": -0.01823947902327373, "lon": -67.4563586219734, "alt_km": 35782.6938766836, "timestamp": "2025-12-22T04:03:38.803627+00:00", "meta": {"OBJECT_NAME": "HIMAWARI-8", "OBJECT_ID": "2014-060A", "EPOCH": "2025-12-21T17:43:38.586720", "MEAN_MOTION": 1.002705, "ECCENTRICITY": 9e-05, "INCLINATION": 0.0386, "RA_OF_ASC_NODE": 132.208, "ARG_OF_PERICENTER": 164.3833, "MEAN_ANOMALY": 200.5374, "EPHEMERIS_TYPE": 0, "CLASSIFICATION_TYPE": "U", "NORAD_CAT_ID": 40267, "ELEMENT_SET_NO": 999, "REV_AT_EPOCH": 4098, "BSTAR": 0, "MEAN_MOTION_DOT": -2.53e-06, "MEAN_MOTION_DDOT": 0}, "tle": {"line1": "1 40267U 14060A   25355.73864105 -.00000253  00000+0  00000+0 0  9993", "line2": "2 40267   0.0386 132.2080 0000900 164.3833 200.5374  1.00270500 40988"}}, "geometry": {"type": "Point", "coordinates": [-67.4563586219734, -0.01823947902327373]}}, {"type": "Feature", "properties": {"norad_id": 40367, "name": "FENGYUN 2G", "group": "weather", "lat": 0.33214204335590636, "lon": -108.89508811061518, "alt_km": 35779.20665235049, "timestamp": "2025-12-22T04:03:38.803640+00:00", "meta": {"OBJECT_NAME": "FENGYUN 2G", "OBJECT_ID": "2014-090A", "EPOCH": "2025-12-21T20:54:57.485088", "MEAN_MOTION": 1.0026073, "ECCENTRICITY": 0.000265, "INCLINATION": 5.1899, "RA_OF_ASC_NODE": 74.9937, "ARG_OF_PERICENTER": 203.4867, "MEAN_ANOMALY": 225.1698, "EPHEMERIS_TYPE": 0, "CLASSIFICATION_TYPE": "U", "NORAD_CAT_ID": 40367, "ELEMENT_SET_NO": 999, "REV_AT_EPOCH": 4022, "BSTAR": 0, "MEAN_MOTION_DOT": -2.79e-06, "MEAN_MOTION_DDOT": 0}, "tle": {"line1": "1 40367U 14090A   25355.87149867 -.00000279  00000+0  00000+0 0  9991", "line2": "2 40367   5.1899  74.9937 0002650 203.4867 225.1698  1.00260730 40226"}}, "geometry": {"type": "Point", "coordinates": [-108.89508811061518, 0.33214204335590636]}}, {"type": "Feature", "properties": {"norad_id": 40732, "name": "METEOSAT-11 (MSG-4)", "group": "weather", "lat": 2.7716688549886506, "lon": 161.0688689459881, "alt_km": 35783.89043238217, "timestamp": "2025-12-22T04:03:38.803652+00:00", "meta": {"OBJECT_NAME": "METEOSAT-11 (MSG-4)", "OBJECT_ID": "2015-034A", "EPOCH": "2025-12-21T18:22:41.415168", "MEAN_MOTION": 1.00270316, "ECCENTRICITY": 7.94e-05, "INCLINATION": 2.7588, "RA_OF_ASC_NODE": 71.9774, "ARG_OF_PERICENTER": 137.3377, "MEAN_ANOMALY": 166.1308, "EPHEMERIS_TYPE": 0, "CLASSIFICATION_TYPE": "U", "NORAD_CAT_ID": 40732, "ELEMENT_SET_NO": 999, "REV_AT_EPOCH": 543, "BSTAR": 0, "MEAN_MOTION_DOT": 8.2e-07, "MEAN_MOTION_DDOT": 0}, "tle": {"line1": "1 40732U 15034A   25355.76575712  .00000082  00000+0  00000+0 0  9997", "line2": "2 40732   2.7588  71.9774 0000794 137.3377 166.1308  1.00270316  5431"}}, "geometry": {"type": "Point", "coordinates": [161.0688689459881, 2.7716688549886506]}}, {"type": "Feature", "properties": {"norad_id": 41105, "name": "ELEKTRO-L 2", "group": "weather", "lat": 5.667049988791987, "lon": 137.25964571026282, "alt_km": 35797.18407297886, "timestamp": "2025-12-22T04:03:38.803664+00:00", "meta": {"OBJECT_NAME": "ELEKTRO-L 2", "OBJECT_ID": "2015-074A", "EPOCH": "2025-12-21T09:42:19.444608", "MEAN_MOTION": 1.00272503, "ECCENTRICITY": 0.00034923, "INCLINATION": 6.2461, "RA_OF_ASC_NODE": 72.7254, "ARG_OF_PERICENTER": 209.0939, "MEAN_ANOMALY": 299.5117, "EPHEMERIS_TYPE": 0, "CLASSIFICATION_TYPE": "U", "NORAD_CAT_ID": 41105, "ELEMENT_SET_NO": 999, "REV_AT_EPOCH": 3672, "BSTAR": 0, "MEAN_MOTION_DOT": -9.9e-07, "MEAN_MOTION_DDOT": 0}, "tle": {"line1": "1 41105U 15074A   25355.40439172 -.00000099  00000+0  00000+0 0  9995", "line2": "2 41105   6.2461  72.7254 0003492 209.0939 299.5117  1.00272503 36721"}}, "geometry": {"type": "Point", "coordinates": [137.25964571026282, 5.667049988791987]}}, {"type": "Feature", "properties": {"norad_id": 41752, "name": "INSAT-3DR", "group": "weather", "lat": 0.056186742582511814, "lon": -134.2462367122844, "alt_km": 35744.3792192139, "timestamp": "2025-12-22T04:03:38.803676+00:00", "meta": {"OBJECT_NAME": "INSAT-3DR", "OBJECT_ID": "2016-054A", "EPOCH": "2025-12-21T19:45:36.611424", "MEAN_MOTION": 1.00271543, "ECCENTRICITY": 0.0014162, "INCLINATION": 0.1136, "RA_OF_ASC_NODE": 86.2658, "ARG_OF_PERICENTER": 185.4479, "MEAN_ANOMALY": 189.3149, "EPHEMERIS_TYPE": 0, "CLASSIFICATION_TYPE": "U", "NORAD_CAT_ID": 41752, "ELEMENT_SET_NO": 999, "REV_AT_EPOCH": 3404, "BSTAR": 0, "MEAN_MOTION_DOT": -5.5e-07, "MEAN_MOTION_DDOT": 0}, "tle": {"line1": "1 41752U 16054A   25355.82334041 -.00000055  00000+0  00000+0 0  9999", "line2": "2 41752   0.1136  86.2658 0014162 185.4479 189.3149  1.00271543 34048"}}, "geometry": {"type": "Point", "coordinates": [-134.2462367122844, 0.056186742582511814]}}]}